     3.04           N: GNSS NAV DATA    M: MIXED            RINEX VERSION / TYPE
ssrcrin-15.6.1x                         20250101 094500 UTC PGM / RUN BY / DATE 
    18                                                      LEAP SECONDS        
                                                            END OF HEADER       
S27 2025 01 01 09 45 36 0.000000000000E+00 0.000000000000E+00 2.943120000000E+05
     2.409257576000E+04-3.242500000000E-03 2.375000000000E-07 6.300000000000E+01
     3.456260736000E+04 3.622500000000E-03 5.000000000000E-08 3.276700000000E+04
    -3.284116000000E+02-3.327600000000E-02 1.750000000000E-06 1.350000000000E+02
S28 2025 01 01 09 45 36 3.310851752758E-07-9.094947017729E-12 2.943120000000E+05
     5.071620400000E+03-1.051875000000E-03 2.250000000000E-07 6.300000000000E+01
     4.185098240000E+04 1.629375000000E-03 3.750000000000E-08 3.276700000000E+04
     9.528400000000E+00 1.584000000000E-03-6.250000000000E-08 1.350000000000E+02
S23 2025 01 01 09 44 16 0.000000000000E+00 0.000000000000E+00 2.943330000000E+05
     3.866796400000E+04 0.000000000000E+00 0.000000000000E+00 6.300000000000E+01
     1.681330800000E+04 0.000000000000E+00 0.000000000000E+00 3.276700000000E+04
     0.000000000000E+00 0.000000000000E+00 0.000000000000E+00 9.000000000000E+00
S36 2025 01 01 09 45 36 0.000000000000E+00 0.000000000000E+00 2.943390000000E+05
     4.200368800000E+04 0.000000000000E+00 0.000000000000E+00 6.300000000000E+01
     3.674846960000E+03 0.000000000000E+00 0.000000000000E+00 3.276700000000E+04
     0.000000000000E+00 0.000000000000E+00 0.000000000000E+00 1.260000000000E+02
S21 2025 01 01 09 45 52 0.000000000000E+00 0.000000000000E+00 2.943560000000E+05
     4.200468400000E+04 0.000000000000E+00 0.000000000000E+00 6.300000000000E+01
    -3.674932960000E+03 0.000000000000E+00 0.000000000000E+00 3.276700000000E+04
     0.000000000000E+00 0.000000000000E+00 0.000000000000E+00 6.300000000000E+01
S44 2025 01 01 09 46 40 8.423812687397E-07 0.000000000000E+00 2.943920000000E+05
     7.255289120000E+03-3.091250000000E-03 2.750000000000E-07 6.300000000000E+01
     4.148758840000E+04 3.946875000000E-03 1.500000000000E-07 3.276700000000E+04
    -1.789140400000E+03 5.188800000000E-02 4.750000000000E-06 6.000000000000E+01
S23 2025 01 01 09 46 24 0.000000000000E+00 0.000000000000E+00 2.943970000000E+05
     3.866796400000E+04 0.000000000000E+00 0.000000000000E+00 6.300000000000E+01
     1.681330800000E+04 0.000000000000E+00 0.000000000000E+00 3.276700000000E+04
     0.000000000000E+00 0.000000000000E+00 0.000000000000E+00 1.000000000000E+01
S36 2025 01 01 09 48 00 0.000000000000E+00 0.000000000000E+00 2.944910000000E+05
     4.200368800000E+04 0.000000000000E+00 0.000000000000E+00 6.300000000000E+01
     3.674846960000E+03 0.000000000000E+00 0.000000000000E+00 3.276700000000E+04
     0.000000000000E+00 0.000000000000E+00 0.000000000000E+00 1.270000000000E+02
S44 2025 01 01 09 48 48 8.423812687397E-07 0.000000000000E+00 2.945120000000E+05
     7.254898000000E+03-3.020000000000E-03 2.750000000000E-07 6.300000000000E+01
     4.148809616000E+04 3.985625000000E-03 1.500000000000E-07 3.276700000000E+04
    -1.782420800000E+03 5.310400000000E-02 4.687500000000E-06 6.000000000000E+01
E03 2025 01 01 09 30 00-1.637134701014E-04-2.572164703452E-12 0.000000000000E+00
     1.080000000000E+02-1.709375000000E+02 2.795116427819E-09 1.643493021281E+00
    -7.841736078262E-06 2.428457373753E-04 1.277960836887E-05 5.440616790771E+03
     2.934000000000E+05-2.793967723846E-08 3.132742835999E-01 2.607703208923E-08
     9.635835179670E-01 6.637500000000E+01 9.349649548261E-01-5.194859243882E-09
     3.325138505366E-10 5.170000000000E+02 2.347000000000E+03
     3.120000000000E+00 0.000000000000E+00 6.984919309616E-10 1.629814505577E-09
     2.945150000000E+05
S21 2025 01 01 09 48 32 0.000000000000E+00 0.000000000000E+00 2.945180000000E+05
     4.200468400000E+04 0.000000000000E+00 0.000000000000E+00 6.300000000000E+01
    -3.674932960000E+03 0.000000000000E+00 0.000000000000E+00 3.276700000000E+04
     0.000000000000E+00 0.000000000000E+00 0.000000000000E+00 6.400000000000E+01
S23 2025 01 01 09 48 32 0.000000000000E+00 0.000000000000E+00 2.945240000000E+05
     3.866796400000E+04 0.000000000000E+00 0.000000000000E+00 6.300000000000E+01
     1.681330800000E+04 0.000000000000E+00 0.000000000000E+00 3.276700000000E+04
     0.000000000000E+00 0.000000000000E+00 0.000000000000E+00 1.100000000000E+01
S27 2025 01 01 09 49 52 0.000000000000E+00 0.000000000000E+00 2.945660000000E+05
     2.409175352000E+04-3.180625000000E-03 2.500000000000E-07 6.300000000000E+01
     3.456353648000E+04 3.636250000000E-03 5.000000000000E-08 3.276700000000E+04
    -3.368720000000E+02-3.282400000000E-02 1.812500000000E-06 1.360000000000E+02
S28 2025 01 01 09 49 52 3.287568688393E-07-1.364242052659E-11 2.945660000000E+05
     5.071358480000E+03-1.066250000000E-03 2.375000000000E-07 6.300000000000E+01
     4.185140072000E+04 1.404375000000E-03 3.750000000000E-08 3.276700000000E+04
     9.932000000000E+00 1.576000000000E-03-6.250000000000E-08 1.360000000000E+02
E03 2025 01 01 09 30 00-1.637147506699E-04-2.572164703452E-12 0.000000000000E+00
     1.080000000000E+02-1.709375000000E+02 2.795116427819E-09 1.643493021281E+00
    -7.841736078262E-06 2.428457373753E-04 1.277960836887E-05 5.440616790771E+03
     2.934000000000E+05-2.793967723846E-08 3.132742835999E-01 2.607703208923E-08
     9.635835179670E-01 6.637500000000E+01 9.349649548261E-01-5.194859243882E-09
     3.325138505366E-10 2.580000000000E+02 2.347000000000E+03
     3.120000000000E+00 0.000000000000E+00 6.984919309616E-10 0.000000000000E+00
     2.945900000000E+05
S44 2025 01 01 09 50 56 8.423812687397E-07 0.000000000000E+00 2.946320000000E+05
     7.254516080000E+03-2.947500000000E-03 2.750000000000E-07 6.300000000000E+01
     4.148860872000E+04 4.023125000000E-03 1.375000000000E-07 3.276700000000E+04
    -1.775546000000E+03 5.431200000000E-02 4.687500000000E-06 6.000000000000E+01
S36 2025 01 01 09 50 40 0.000000000000E+00 0.000000000000E+00 2.946470000000E+05
     4.200368800000E+04 0.000000000000E+00 0.000000000000E+00 6.300000000000E+01
     3.674846960000E+03 0.000000000000E+00 0.000000000000E+00 3.276700000000E+04
     0.000000000000E+00 0.000000000000E+00 0.000000000000E+00 1.280000000000E+02
S23 2025 01 01 09 50 40 0.000000000000E+00 0.000000000000E+00 2.946510000000E+05
     3.866796400000E+04 0.000000000000E+00 0.000000000000E+00 6.300000000000E+01
     1.681330800000E+04 0.000000000000E+00 0.000000000000E+00 3.276700000000E+04
     0.000000000000E+00 0.000000000000E+00 0.000000000000E+00 1.200000000000E+01
E02 2025 01 01 09 40 00 1.867072423920E-04 2.884803507186E-12 0.000000000000E+00
     1.090000000000E+02-1.462500000000E+01 3.339067656999E-09-1.321128021371E-01
    -6.742775440216E-07 5.102392751724E-04 6.614252924919E-06 5.440609663010E+03
     2.940000000000E+05-1.117587089539E-08 2.416834894966E+00 5.215406417847E-08
     9.646469687097E-01 1.996875000000E+02 6.864948583064E-01-5.433797768059E-09
    -6.446697102239E-10 5.170000000000E+02 2.347000000000E+03
     3.120000000000E+00 0.000000000000E+00-3.958120942116E-09-3.958120942116E-09
     2.946650000000E+05
E03 2025 01 01 09 40 00-1.637150999159E-04-2.586375558167E-12 0.000000000000E+00
     1.090000000000E+02-1.719375000000E+02 2.807974106250E-09 1.719050487181E+00
    -7.890164852142E-06 2.431342145428E-04 1.292489469051E-05 5.440615989685E+03
     2.940000000000E+05-3.352761268616E-08 3.132711866024E-01 2.421438694000E-08
     9.635836876655E-01 6.321875000000E+01 9.337921699749E-01-5.199859452161E-09
     3.332281660049E-10 5.170000000000E+02 2.347000000000E+03
     3.120000000000E+00 0.000000000000E+00 6.984919309616E-10 1.629814505577E-09
     2.946650000000E+05
E30 2025 01 01 09 40 00-1.089641242288E-03-4.006039944215E-11 0.000000000000E+00
     1.090000000000E+02-2.018750000000E+01 3.472644649589E-09-1.212197888931E+00
    -1.033768057823E-06 5.755515303463E-04 6.338581442833E-06 5.440609289169E+03
     2.940000000000E+05 3.725290298462E-08 2.416267512429E+00-3.725290298462E-09
     9.620466976551E-01 2.027500000000E+02 9.715115845228E-01-5.537373510976E-09
    -6.457411834265E-10 5.170000000000E+02 2.347000000000E+03
     3.120000000000E+00 0.000000000000E+00-9.313225746155E-10-2.328306436539E-10
     2.946650000000E+05
E24 2025 01 01 09 40 00-1.187552523334E-03-2.127364950866E-11 0.000000000000E+00
     1.090000000000E+02-2.475000000000E+01 3.366925960266E-09 1.212686854669E+00
    -1.315027475357E-06 7.855658186600E-04 7.001683115959E-06 5.440613893509E+03
     2.940000000000E+05 5.401670932770E-08 2.416351622904E+00 1.862645149231E-08
     9.620646886216E-01 1.945312500000E+02 9.100870746768E-01-5.481656904441E-09
    -7.414594561911E-10 5.170000000000E+02 2.347000000000E+03
     3.120000000000E+00 0.000000000000E+00-6.286427378654E-09-6.519258022308E-09
     2.946650000000E+05
E33 2025 01 01 09 40 00 1.643633004278E-05 1.278976924368E-13 0.000000000000E+00
     1.090000000000E+02 1.535625000000E+02 2.542248752008E-09-2.943104810734E+00
     7.128342986107E-06 3.429492935538E-04 3.147870302200E-07 5.440615631104E+03
     2.940000000000E+05-9.313225746155E-09-1.775841255213E+00 4.470348358154E-08
     9.996927527130E-01 3.473125000000E+02-1.717049678994E+00-5.653449774590E-09
     3.600149960697E-10 5.170000000000E+02 2.347000000000E+03
     3.120000000000E+00 0.000000000000E+00-6.053596735001E-09-5.820766091347E-09
     2.946650000000E+05
S21 2025 01 01 09 51 12 0.000000000000E+00 0.000000000000E+00 2.946830000000E+05
     4.200468400000E+04 0.000000000000E+00 0.000000000000E+00 6.300000000000E+01
    -3.674932960000E+03 0.000000000000E+00 0.000000000000E+00 3.276700000000E+04
     0.000000000000E+00 0.000000000000E+00 0.000000000000E+00 6.500000000000E+01
